{"type": "FeatureCollection", "features": [ {"type": "Feature", "properties": {"norad_id": 66928, "name": "STARLINK-35944", "group": "last-30-days", "lat": 52.27422396770534, "lon": 113.93048911619901, "alt_km": 333.8514487253833, "timestamp": "2025-12-20T20:38:43.174435+00:00", "meta": {"OBJECT_NAME": "STARLINK-35944", "OBJECT_ID": "2025-286D", "EPOCH": "2025-12-20T14:00:03.000384", "MEAN_MOTION": 15.76959301, "ECCENTRICITY": 7.223e-05, "INCLINATION": 53.1566, "RA_OF_ASC_NODE": 11.0664, "ARG_OF_PERICENTER": 62.012, "MEAN_ANOMALY": 264.4128, "EPHEMERIS_TYPE": 0, "CLASSIFICATION_TYPE": "U", "NORAD_CAT_ID": 66928, "ELEMENT_SET_NO": 999, "REV_AT_EPOCH": 325, "BSTAR": -0.0092221814, "MEAN_MOTION_DOT": -0.01359586, "MEAN_MOTION_DDOT": 0}, "tle": {"line1": "1 66928U 25286D   25354.58336806 -.01359586  00000+0 -92222-2 0  9999", "line2": "2 66928  53.1566  11.0664 0000722  62.0120 264.4128 15.76959301  3252"}}, "geometry": {"type": "Point", "coordinates": [113.93048911619901, 52.27422396770534]}}, {"type": "Feature", "properties": {"norad_id": 66929, "name": "STARLINK-36169", "group": "last-30-days", "lat": 50.691790850581626, "lon": 123.34851766972075, "alt_km": 334.29133204160735, "timestamp": "2025-12-20T20:38:43.174445+00:00", "meta": {"OBJECT_NAME": "STARLINK-36169", "OBJECT_ID": "2025-286E", "EPOCH": "2025-12-20T14:00:03.000384", "MEAN_MOTION": 15.76853775, "ECCENTRICITY": 0.00010424, "INCLINATION": 53.1565, "RA_OF_ASC_NODE": 11.0533, "ARG_OF_PERICENTER": 63.3627, "MEAN_ANOMALY": 269.2408, "EPHEMERIS_TYPE": 0, "CLASSIFICATION_TYPE": "U", "NORAD_CAT_ID": 66929, "ELEMENT_SET_NO": 999, "REV_AT_EPOCH": 325, "BSTAR": -0.0094703448, "MEAN_MOTION_DOT": -0.01386435, "MEAN_MOTION_DDOT": 0}, "tle": {"line1": "1 66929U 25286E   25354.58336806 -.01386435  00000+0 -94703-2 0  9999", "line2": "2 66929  53.1565  11.0533 0001042  63.3627 269.2408 15.76853775  3251"}}, "geometry": {"type": "Point", "coordinates": [123.34851766972075, 50.691790850581626]}}, {"type": "Feature", "properties": {"norad_id": 66930, "name": "STARLINK-36206", "group": "last-30-days", "lat": 50.017245170529904, "lon": 126.26981404036212, "alt_km": 334.60488175234514, "timestamp": "2025-12-20T20:38:43.174455+00:00", "meta": {"OBJECT_NAME": "STARLINK-36206", "OBJECT_ID": "2025-286F", "EPOCH": "2025-12-20T14:00:03.000384", "MEAN_MOTION": 15.7682762, "ECCENTRICITY": 6.421e-05, "INCLINATION": 53.1565, "RA_OF_ASC_NODE": 11.0491, "ARG_OF_PERICENTER": 75.6752, "MEAN_ANOMALY": 258.9407, "EPHEMERIS_TYPE": 0, "CLASSIFICATION_TYPE": "U", "NORAD_CAT_ID": 66930, "ELEMENT_SET_NO": 999, "REV_AT_EPOCH": 325, "BSTAR": -0.0094803985, "MEAN_MOTION_DOT": -0.01386083, "MEAN_MOTION_DDOT": 0}, "tle": {"line1": "1 66930U 25286F   25354.58336806 -.01386083  00000+0 -94804-2 0  9992", "line2": "2 66930  53.1565  11.0491 0000642  75.6752 258.9407 15.76827620  3250"}}, "geometry": {"type": "Point", "coordinates": [126.26981404036212, 50.017245170529904]}}, {"type": "Feature", "properties": {"norad_id": 66931, "name": "STARLINK-36130", "group": "last-30-days", "lat": 49.242321671212004, "lon": 129.20887675151428, "alt_km": 334.73351698189526, "timestamp": "2025-12-20T20:38:43.174465+00:00", "meta": {"OBJECT_NAME": "STARLINK-36130", "OBJECT_ID": "2025-286G", "EPOCH": "2025-12-20T14:00:03.000384", "MEAN_MOTION": 15.76775994, "ECCENTRICITY": 0.00010249, "INCLINATION": 53.1564, "RA_OF_ASC_NODE": 11.0447, "ARG_OF_PERICENTER": 69.8593, "MEAN_ANOMALY": 266.8614, "EPHEMERIS_TYPE": 0, "CLASSIFICATION_TYPE": "U", "NORAD_CAT_ID": 66931, "ELEMENT_SET_NO": 999, "REV_AT_EPOCH": 325, "BSTAR": -0.009578092, "MEAN_MOTION_DOT": -0.01396106, "MEAN_MOTION_DDOT": 0}, "tle": {"line1": "1 66931U 25286G   25354.58336806 -.01396106  00000+0 -95781-2 0  9995", "line2": "2 66931  53.1564  11.0447 0001024  69.8593 266.8614 15.76775994  3258"}}, "geometry": {"type": "Point", "coordinates": [129.20887675151428, 49.242321671212004]}}, {"type": "Feature", "properties": {"norad_id": 66932, "name": "STARLINK-36177", "group": "last-30-days", "lat": 48.40486683395032, "lon": 132.02206292630922, "alt_km": 335.14360688584657, "timestamp": "2025-12-20T20:38:43.174475+00:00", "meta": {"OBJECT_NAME": "STARLINK-36177", "OBJECT_ID": "2025-286H", "EPOCH": "2025-12-20T14:00:03.000384", "MEAN_MOTION": 15.76731396, "ECCENTRICITY": 8.512e-05, "INCLINATION": 53.1565, "RA_OF_ASC_NODE": 11.0402, "ARG_OF_PERICENTER": 62.1005, "MEAN_ANOMALY": 276.6999, "EPHEMERIS_TYPE": 0, "CLASSIFICATION_TYPE": "U", "NORAD_CAT_ID": 66932, "ELEMENT_SET_NO": 999, "REV_AT_EPOCH": 325, "BSTAR": -0.0096668624, "MEAN_MOTION_DOT": -0.01404997, "MEAN_MOTION_DDOT": 0}, "tle": {"line1": "1 66932U 25286H   25354.58336806 -.01404997  00000+0 -96669-2 0  9990", "line2": "2 66932  53.1565  11.0402 0000851  62.1005 276.6999 15.76731396  3255"}}, "geometry": {"type": "Point", "coordinates": [132.02206292630922, 48.40486683395032]}}, {"type": "Feature", "properties": {"norad_id": 66933, "name": "STARLINK-36157", "group": "last-30-days", "lat": 47.505779671890295, "lon": 134.72648910550032, "alt_km": 335.47180133852817, "timestamp": "2025-12-20T20:38:43.174485+00:00", "meta": {"OBJECT_NAME": "STARLINK-36157", "OBJECT_ID": "2025-286J", "EPOCH": "2025-12-20T14:00:03.000384", "MEAN_MOTION": 15.76684941, "ECCENTRICITY": 8.097e-05, "INCLINATION": 53.1565, "RA_OF_ASC_NODE": 11.036, "ARG_OF_PERICENTER": 59.8186, "MEAN_ANOMALY": 281.0505, "EPHEMERIS_TYPE": 0, "CLASSIFICATION_TYPE": "U", "NORAD_CAT_ID": 66933, "ELEMENT_SET_NO": 999, "REV_AT_EPOCH": 325, "BSTAR": -0.0097181302, "MEAN_MOTION_DOT": -0.01408982, "MEAN_MOTION_DDOT": 0}, "tle": {"line1": "1 66933U 25286J   25354.58336806 -.01408982  00000+0 -97181-2 0  9999", "line2": "2 66933  53.1565  11.0360 0000809  59.8186 281.0505 15.76684941  3251"}}, "geometry": {"type": "Point", "coordinates": [134.72648910550032, 47.505779671890295]}}, {"type": "Feature", "properties": {"norad_id": 66934, "name": "STARLINK-36153", "group": "last-30-days", "lat": 46.54410858783669, "lon": 137.33778543075536, "alt_km": 335.64327980371036, "timestamp": "2025-12-20T20:38:43.174495+00:00", "meta": {"OBJECT_NAME": "STARLINK-36153", "OBJECT_ID": "2025-286K", "EPOCH": "2025-12-20T14:00:03.000384", "MEAN_MOTION": 15.76639819, "ECCENTRICITY": 9.206e-05, "INCLINATION": 53.156, "RA_OF_ASC_NODE": 11.0317, "ARG_OF_PERICENTER": 68.3927, "MEAN_ANOMALY": 274.5468, "EPHEMERIS_TYPE": 0, "CLASSIFICATION_TYPE": "U", "NORAD_CAT_ID": 66934, "ELEMENT_SET_NO": 999, "REV_AT_EPOCH": 325, "BSTAR": -0.0098019387, "MEAN_MOTION_DOT": -0.01417274, "MEAN_MOTION_DDOT": 0}, "tle": {"line1": "1 66934U 25286K   25354.58336806 -.01417274  00000+0 -98019-2 0  9995", "line2": "2 66934  53.1560  11.0317 0000920  68.3927 274.5468 15.76639819  3250"}}, "geometry": {"type": "Point", "coordinates": [137.33778543075536, 46.54410858783669]}}, {"type": "Feature", "properties": {"norad_id": 66935, "name": "STARLINK-36127", "group": "last-30-days", "lat": 45.503631363386795, "lon": 139.90656898785448, "alt_km": 336.0775094244309, "timestamp": "2025-12-20T20:38:43.174512+00:00", "meta": {"OBJECT_NAME": "STARLINK-36127", "OBJECT_ID": "2025-286L", "EPOCH": "2025-12-20T14:00:03.000384", "MEAN_MOTION": 15.7654829, "ECCENTRICITY": 6.942e-05, "INCLINATION": 53.1559, "RA_OF_ASC_NODE": 11.0271, "ARG_OF_PERICENTER": 75.0435, "MEAN_ANOMALY": 270.0437, "EPHEMERIS_TYPE": 0, "CLASSIFICATION_TYPE": "U", "NORAD_CAT_ID": 66935, "ELEMENT_SET_NO": 999, "REV_AT_EPOCH": 325, "BSTAR": -0.0095991498, "MEAN_MOTION_DOT": -0.01386055, "MEAN_MOTION_DDOT": 0}, "tle": {"line1": "1 66935U 25286L   25354.58336806 -.01386055  00000+0 -95991-2 0  9994", "line2": "2 66935  53.1559  11.0271 0000694  75.0435 270.0437 15.76548290  3254"}}, "geometry": {"type": "Point", "coordinates": [139.90656898785448, 45.503631363386795]}}, {"type": "Feature", "properties": {"norad_id": 66936, "name": "STARLINK-36160", "group": "last-30-days", "lat": 44.4488255483773, "lon": 142.29154349210012, "alt_km": 336.41865644122936, "timestamp": "2025-12-20T20:38:43.174526+00:00", "meta": {"OBJECT_NAME": "STARLINK-36160", "OBJECT_ID": "2025-286M", "EPOCH": "2025-12-20T14:00:03.000384", "MEAN_MOTION": 15.76517617, "ECCENTRICITY": 7.344e-05, "INCLINATION": 53.1561, "RA_OF_ASC_NODE": 11.0235, "ARG_OF_PERICENTER": 64.5056, "MEAN_ANOMALY": 282.602, "EPHEMERIS_TYPE": 0, "CLASSIFICATION_TYPE": "U", "NORAD_CAT_ID": 66936, "ELEMENT_SET_NO": 999, "REV_AT_EPOCH": 325, "BSTAR": -0.0096845911, "MEAN_MOTION_DOT": -0.01395333, "MEAN_MOTION_DDOT": 0}, "tle": {"line1": "1 66936U 25286M   25354.58336806 -.01395333  00000+0 -96846-2 0  9994", "line2": "2 66936  53.1561  11.0235 0000734  64.5056 282.6020 15.76517617  3251"}}, "geometry": {"type": "Point", "coordinates": [142.29154349210012, 44.4488255483773]}}, {"type": "Feature", "properties": {"norad_id": 66937, "name": "STARLINK-36165", "group": "last-30-days", "lat": 43.34309687819757, "lon": 144.59448084543268, "alt_km": 336.6760475804904, "timestamp": "2025-12-20T20:38:43.174536+00:00", "meta": {"OBJECT_NAME": "STARLINK-36165", "OBJECT_ID": "2025-286N", "EPOCH": "2025-12-20T14:00:03.000384", "MEAN_MOTION": 15.76482015, "ECCENTRICITY": 8.979e-05, "INCLINATION": 53.1562, "RA_OF_ASC_NODE": 11.0188, "ARG_OF_PERICENTER": 62.7838, "MEAN_ANOMALY": 286.3538, "EPHEMERIS_TYPE": 0, "CLASSIFICATION_TYPE": "U", "NORAD_CAT_ID": 66937, "ELEMENT_SET_NO": 999, "REV_AT_EPOCH": 325, "BSTAR": -0.0097610112, "MEAN_MOTION_DOT": -0.0140321, "MEAN_MOTION_DDOT": 0}, "tle": {"line1": "1 66937U 25286N   25354.58336806 -.01403210  00000+0 -97610-2 0  9999", "line2": "2 66937  53.1562  11.0188 0000897  62.7838 286.3538 15.76482015  3256"}}, "geometry": {"type": "Point", "coordinates": [144.59448084543268, 43.34309687819757]}}]}